SPACEBEE-85             
1 47705U 21015G   22230.44820170  .00055519  00000+0  13510-2 0  9993
2 47705  97.4100 308.6031 0007326 199.9392 160.1569 15.40739459 81809
SPACEBEE-84             
1 47706U 21015H   22231.21264808  .00060285  00000+0  14534-2 0  9993
2 47706  97.4102 309.4113 0007494 196.3618 163.7388 15.40997939 81920
SPACEBEE-83             
1 47707U 21015J   22231.20887040  .00060097  00000+0  14320-2 0  9996
2 47707  97.4090 309.3980 0007076 199.8273 160.2699 15.41356289 81924
SPACEBEE-82             
1 47708U 21015K   22231.18314702  .00063924  00000+0  14783-2 0  9999
2 47708  97.4091 309.5727 0007502 196.9944 163.1053 15.42237569 81931
SPACEBEE-81             
1 47709U 21015L   22231.20649033  .00066907  00000+0  15174-2 0  9990
2 47709  97.4101 309.7100 0007082 199.5210 160.5767 15.42812335 81864
SPACEBEE-78             
1 47710U 21015M   22231.19226888  .00074796  00000+0  16302-2 0  9998
2 47710  97.4096 309.8790 0007324 198.3650 161.7335 15.43961831 81950
SPACEBEE-76             
1 47711U 21015N   22231.20082705  .00084148  00000+0  17345-2 0  9999
2 47711  97.4087 310.1651 0007158 195.7845 164.3182 15.45571817 81978
SPACEBEE-80             
1 47712U 21015P   22231.17486205  .00071778  00000+0  16011-2 0  9993
2 47712  97.4094 309.7499 0007190 197.2194 162.8811 15.43285956 81944
SPACEBEE-77             
1 47714U 21015Q   22230.65074557  .00073322  00000+0  15380-2 0  9995
2 47714  97.4093 309.5385 0007177 197.5843 162.5158 15.45102464 81806
SPACEBEE-79             
1 47715U 21015R   22231.19278211  .00069512  00000+0  15614-2 0  9995
2 47715  97.4127 309.8034 0007127 198.4527 161.6463 15.43088213 81940
SPACEBEE-65             
1 48626U 21006ES  22230.08740410  .00032233  00000+0  12545-2 0  9999
2 48626  97.2035 276.2182 0012406  46.6765 313.5506 15.25867061 86793
SPACEBEE-64             
1 48627U 21006ET  22230.13630638  .00034006  00000+0  13156-2 0  9995
2 48627  97.2040 276.3019 0012297  46.1904 314.0350 15.26056472 86800
SPACEBEE-66             
1 48628U 21006EU  22230.38647092  .00033122  00000+0  13027-2 0  9990
2 48628  97.2034 276.4174 0012584  45.9527 314.2746 15.25509166 86830
SPACEBEE-67             
1 48629U 21006EV  22231.12142969  .00032143  00000+0  12685-2 0  9998
2 48629  97.2035 277.0953 0012587  43.7572 316.4662 15.25401468 86942
SPACEBEE-68             
1 48630U 21006EW  22230.09153459  .00026263  00000+0  10448-2 0  9992
2 48630  97.2031 276.0606 0012755  47.2623 312.9687 15.25172669 86785
SPACEBEE-69             
1 48631U 21006EX  22230.43786070  .00030132  00000+0  12033-2 0  9994
2 48631  97.2038 276.3577 0012854  45.9102 314.3192 15.25015572 86832
SPACEBEE-70             
1 48632U 21006EY  22231.11722102  .00029695  00000+0  11903-2 0  9994
2 48632  97.2037 276.9572 0012965  44.1472 316.0798 15.24891577 86935
