[{"OBJECT_NAME":"SPACEBEE-85","OBJECT_ID":"2021-015G","EPOCH":"2022-08-18T10:45:24.626880","MEAN_MOTION":15.40739459,"ECCENTRICITY":0.0007326,"INCLINATION":97.41,"RA_OF_ASC_NODE":308.6031,"ARG_OF_PERICENTER":199.9392,"MEAN_ANOMALY":160.1569,"EPHEMERIS_TYPE":0,"CLASSIFICATION_TYPE":"U","NORAD_CAT_ID":47705,"ELEMENT_SET_NO":999,"REV_AT_EPOCH":8180,"BSTAR":0.001351,"MEAN_MOTION_DOT":0.00055519,"MEAN_MOTION_DDOT":0},{"OBJECT_NAME":"SPACEBEE-84","OBJECT_ID":"2021-015H","EPOCH":"2022-08-19T05:06:12.794112","MEAN_MOTION":15.40997939,"ECCENTRICITY":0.0007494,"INCLINATION":97.4102,"RA_OF_ASC_NODE":309.4113,"ARG_OF_PERICENTER":196.3618,"MEAN_ANOMALY":163.7388,"EPHEMERIS_TYPE":0,"CLASSIFICATION_TYPE":"U","NORAD_CAT_ID":47706,"ELEMENT_SET_NO":999,"REV_AT_EPOCH":8192,"BSTAR":0.0014534,"MEAN_MOTION_DOT":0.00060285,"MEAN_MOTION_DDOT":0},{"OBJECT_NAME":"SPACEBEE-83","OBJECT_ID":"2021-015J","EPOCH":"2022-08-19T05:00:46.402560","MEAN_MOTION":15.41356289,"ECCENTRICITY":0.0007076,"INCLINATION":97.409,"RA_OF_ASC_NODE":309.398,"ARG_OF_PERICENTER":199.8273,"MEAN_ANOMALY":160.2699,"EPHEMERIS_TYPE":0,"CLASSIFICATION_TYPE":"U","NORAD_CAT_ID":47707,"ELEMENT_SET_NO":999,"REV_AT_EPOCH":8192,"BSTAR":0.001432,"MEAN_MOTION_DOT":0.00060097,"MEAN_MOTION_DDOT":0},{"OBJECT_NAME":"SPACEBEE-82","OBJECT_ID":"2021-015K","EPOCH":"2022-08-19T04:23:43.902528","MEAN_MOTION":15.42237569,"ECCENTRICITY":0.0007502,"INCLINATION":97.4091,"RA_OF_ASC_NODE":309.5727,"ARG_OF_PERICENTER":196.9944,"MEAN_ANOMALY":163.1053,"EPHEMERIS_TYPE":0,"CLASSIFICATION_TYPE":"U","NORAD_CAT_ID":47708,"ELEMENT_SET_NO":999,"REV_AT_EPOCH":8193,"BSTAR":0.0014783,"MEAN_MOTION_DOT":0.00063924,"MEAN_MOTION_DDOT":0},{"OBJECT_NAME":"SPACEBEE-81","OBJECT_ID":"2021-015L","EPOCH":"2022-08-19T04:57:20.764512","MEAN_MOTION":15.42812335,"ECCENTRICITY":0.0007082,"INCLINATION":97.4101,"RA_OF_ASC_NODE":309.71,"ARG_OF_PERICENTER":199.521,"MEAN_ANOMALY":160.5767,"EPHEMERIS_TYPE":0,"CLASSIFICATION_TYPE":"U","NORAD_CAT_ID":47709,"ELEMENT_SET_NO":999,"REV_AT_EPOCH":8186,"BSTAR":0.0015174,"MEAN_MOTION_DOT":0.00066907,"MEAN_MOTION_DDOT":0},{"OBJECT_NAME":"SPACEBEE-78","OBJECT_ID":"2021-015M","EPOCH":"2022-08-19T04:36:52.031232","MEAN_MOTION":15.43961831,"ECCENTRICITY":0.0007324,"INCLINATION":97.4096,"RA_OF_ASC_NODE":309.879,"ARG_OF_PERICENTER":198.365,"MEAN_ANOMALY":161.7335,"EPHEMERIS_TYPE":0,"CLASSIFICATION_TYPE":"U","NORAD_CAT_ID":47710,"ELEMENT_SET_NO":999,"REV_AT_EPOCH":8195,"BSTAR":0.0016302,"MEAN_MOTION_DOT":0.00074796,"MEAN_MOTION_DDOT":0},{"OBJECT_NAME":"SPACEBEE-76","OBJECT_ID":"2021-015N","EPOCH":"2022-08-19T04:49:11.457120","MEAN_MOTION":15.45571817,"ECCENTRICITY":0.0007158,"INCLINATION":97.4087,"RA_OF_ASC_NODE":310.1651,"ARG_OF_PERICENTER":195.7845,"MEAN_ANOMALY":164.3182,"EPHEMERIS_TYPE":0,"CLASSIFICATION_TYPE":"U","NORAD_CAT_ID":47711,"ELEMENT_SET_NO":999,"REV_AT_EPOCH":8197,"BSTAR":0.0017345,"MEAN_MOTION_DOT":0.00084148,"MEAN_MOTION_DDOT":0},{"OBJECT_NAME":"SPACEBEE-80","OBJECT_ID":"2021-015P","EPOCH":"2022-08-19T04:11:48.081120","MEAN_MOTION":15.43285956,"ECCENTRICITY":0.000719,"INCLINATION":97.4094,"RA_OF_ASC_NODE":309.7499,"ARG_OF_PERICENTER":197.2194,"MEAN_ANOMALY":162.8811,"EPHEMERIS_TYPE":0,"CLASSIFICATION_TYPE":"U","NORAD_CAT_ID":47712,"ELEMENT_SET_NO":999,"REV_AT_EPOCH":8194,"BSTAR":0.0016011,"MEAN_MOTION_DOT":0.00071778,"MEAN_MOTION_DDOT":0},{"OBJECT_NAME":"SPACEBEE-77","OBJECT_ID":"2021-015Q","EPOCH":"2022-08-18T15:37:04.417248","MEAN_MOTION":15.45102464,"ECCENTRICITY":0.0007177,"INCLINATION":97.4093,"RA_OF_ASC_NODE":309.5385,"ARG_OF_PERICENTER":197.5843,"MEAN_ANOMALY":162.5158,"EPHEMERIS_TYPE":0,"CLASSIFICATION_TYPE":"U","NORAD_CAT_ID":47714,"ELEMENT_SET_NO":999,"REV_AT_EPOCH":8180,"BSTAR":0.001538,"MEAN_MOTION_DOT":0.00073322,"MEAN_MOTION_DDOT":0},{"OBJECT_NAME":"SPACEBEE-79","OBJECT_ID":"2021-015R","EPOCH":"2022-08-19T04:37:36.374304","MEAN_MOTION":15.43088213,"ECCENTRICITY":0.0007127,"INCLINATION":97.4127,"RA_OF_ASC_NODE":309.8034,"ARG_OF_PERICENTER":198.4527,"MEAN_ANOMALY":161.6463,"EPHEMERIS_TYPE":0,"CLASSIFICATION_TYPE":"U","NORAD_CAT_ID":47715,"ELEMENT_SET_NO":999,"REV_AT_EPOCH":8194,"BSTAR":0.0015614,"MEAN_MOTION_DOT":0.00069512,"MEAN_MOTION_DDOT":0},{"OBJECT_NAME":"SPACEBEE-65","OBJECT_ID":"2021-006ES","EPOCH":"2022-08-18T02:05:51.714240","MEAN_MOTION":15.25867061,"ECCENTRICITY":0.0012406,"INCLINATION":97.2035,"RA_OF_ASC_NODE":276.2182,"ARG_OF_PERICENTER":46.6765,"MEAN_ANOMALY":313.5506,"EPHEMERIS_TYPE":0,"CLASSIFICATION_TYPE":"U","NORAD_CAT_ID":48626,"ELEMENT_SET_NO":999,"REV_AT_EPOCH":8679,"BSTAR":0.0012545,"MEAN_MOTION_DOT":0.00032233,"MEAN_MOTION_DDOT":0},{"OBJECT_NAME":"SPACEBEE-64","OBJECT_ID":"2021-006ET","EPOCH":"2022-08-18T03:16:16.871232","MEAN_MOTION":15.26056472,"ECCENTRICITY":0.0012297,"INCLINATION":97.204,"RA_OF_ASC_NODE":276.3019,"ARG_OF_PERICENTER":46.1904,"MEAN_ANOMALY":314.035,"EPHEMERIS_TYPE":0,"CLASSIFICATION_TYPE":"U","NORAD_CAT_ID":48627,"ELEMENT_SET_NO":999,"REV_AT_EPOCH":8680,"BSTAR":0.0013156,"MEAN_MOTION_DOT":0.00034006,"MEAN_MOTION_DDOT":0},{"OBJECT_NAME":"SPACEBEE-66","OBJECT_ID":"2021-006EU","EPOCH":"2022-08-18T09:16:31.087488","MEAN_MOTION":15.25509166,"ECCENTRICITY":0.0012584,"INCLINATION":97.2034,"RA_OF_ASC_NODE":276.4174,"ARG_OF_PERICENTER":45.9527,"MEAN_ANOMALY":314.2746,"EPHEMERIS_TYPE":0,"CLASSIFICATION_TYPE":"U","NORAD_CAT_ID":48628,"ELEMENT_SET_NO":999,"REV_AT_EPOCH":8683,"BSTAR":0.0013027,"MEAN_MOTION_DOT":0.00033122,"MEAN_MOTION_DDOT":0},{"OBJECT_NAME":"SPACEBEE-67","OBJECT_ID":"2021-006EV","EPOCH":"2022-08-19T02:54:51.525216","MEAN_MOTION":15.25401468,"ECCENTRICITY":0.0012587,"INCLINATION":97.2035,"RA_OF_ASC_NODE":277.0953,"ARG_OF_PERICENTER":43.7572,"MEAN_ANOMALY":316.4662,"EPHEMERIS_TYPE":0,"CLASSIFICATION_TYPE":"U","NORAD_CAT_ID":48629,"ELEMENT_SET_NO":999,"REV_AT_EPOCH":8694,"BSTAR":0.0012685,"MEAN_MOTION_DOT":0.00032143,"MEAN_MOTION_DDOT":0},{"OBJECT_NAME":"SPACEBEE-68","OBJECT_ID":"2021-006EW","EPOCH":"2022-08-18T02:11:48.588576","MEAN_MOTION":15.25172669,"ECCENTRICITY":0.0012755,"INCLINATION":97.2031,"RA_OF_ASC_NODE":276.0606,"ARG_OF_PERICENTER":47.2623,"MEAN_ANOMALY":312.9687,"EPHEMERIS_TYPE":0,"CLASSIFICATION_TYPE":"U","NORAD_CAT_ID":48630,"ELEMENT_SET_NO":999,"REV_AT_EPOCH":8678,"BSTAR":0.0010448,"MEAN_MOTION_DOT":0.00026263,"MEAN_MOTION_DDOT":0},{"OBJECT_NAME":"SPACEBEE-69","OBJECT_ID":"2021-006EX","EPOCH":"2022-08-18T10:30:31.164480","MEAN_MOTION":15.25015572,"ECCENTRICITY":0.0012854,"INCLINATION":97.2038,"RA_OF_ASC_NODE":276.3577,"ARG_OF_PERICENTER":45.9102,"MEAN_ANOMALY":314.3192,"EPHEMERIS_TYPE":0,"CLASSIFICATION_TYPE":"U","NORAD_CAT_ID":48631,"ELEMENT_SET_NO":999,"REV_AT_EPOCH":8683,"BSTAR":0.0012033,"MEAN_MOTION_DOT":0.00030132,"MEAN_MOTION_DDOT":0},{"OBJECT_NAME":"SPACEBEE-70","OBJECT_ID":"2021-006EY","EPOCH":"2022-08-19T02:48:47.896128","MEAN_MOTION":15.24891577,"ECCENTRICITY":0.0012965,"INCLINATION":97.2037,"RA_OF_ASC_NODE":276.9572,"ARG_OF_PERICENTER":44.1472,"MEAN_ANOMALY":316.0798,"EPHEMERIS_TYPE":0,"CLASSIFICATION_TYPE":"U","NORAD_CAT_ID":48632,"ELEMENT_SET_NO":999,"REV_AT_EPOCH":8693,"BSTAR":0.0011903,"MEAN_MOTION_DOT":0.00029695,"MEAN_MOTION_DDOT":0}]